STARLINK-35048          
1 65286U 25184P   26032.69135516  .00003513  00000+0  24757-3 0  9995
2 65286  97.6038  87.1682 0000972  86.4436 273.6902 15.05652689 25837
STARLINK-35007          
1 65287U 25184Q   26032.70796595  .00003395  00000+0  23938-3 0  9996
2 65287  97.6020  87.1440 0000536  80.6231 279.5056 15.05654204 25825
STARLINK-35018          
1 65288U 25184R   26032.74398951  .00006997  00000+0  48854-3 0  9990
2 65288  97.6047  87.2528 0001001 107.7923 252.3413 15.05659987 25896
STARLINK-34845          
1 65289U 25184S   26032.73566369  .00003922  00000+0  27580-3 0  9998
2 65289  97.6041  87.2616 0001177 117.8346 242.3000 15.05656597 25899
STARLINK-34984          
1 65290U 25184T   26032.68305032  .00001435  00000+0  10367-3 0  9994
2 65290  97.6047  87.1797 0000865  95.5375 264.5950 15.05649420 25889
STARLINK-35002          
1 65291U 25184U   26032.71904480 -.00000716  00000+0 -45430-4 0  9994
2 65291  97.6012  87.1292 0000591 119.7366 240.3920 15.05641742 25885
STARLINK-35017          
1 65292U 25184V   26032.73013005  .00002876  00000+0  20341-3 0  9991
2 65292  97.6034  87.2691 0001685  90.4936 269.6484 15.05653055 25842
STARLINK-34951          
1 65293U 25184W   26032.69412218  .00002180  00000+0  15517-3 0  9993
2 65293  97.6038  87.1644 0000484  40.5925 319.5338 15.05664645 25888
STARLINK-34613          
1 65294U 25184X   26032.70521583  .00005660  00000+0  39618-3 0  9996
2 65294  97.6025  87.1480 0001231  86.6079 273.5289 15.05646007 25881
STARLINK-34834          
1 65295U 25184Y   26032.92395561  .00002443  00000+0  17347-3 0  9997
2 65295  97.6025  87.3204 0001561  86.7041 273.4365 15.05651731 25912
STARLINK-34872          
1 65296U 25184Z   26032.71352133  .00009501  00000+0  66215-3 0  9993
2 65296  97.6013  87.1373 0001209  92.3455 267.7910 15.05629508 25881
STARLINK-34899          
1 65323U 25189A   26032.93816280  .00029021  00000+0  98815-3 0  9991
2 65323  53.1629  12.7506 0001699  90.6869 269.4326 15.30199048 25639
STARLINK-34196          
1 65324U 25189B   26032.27129730  .00022713  00000+0  77674-3 0  9997
2 65324  53.1635  15.7154 0001456  71.0257 289.0902 15.30195899 25485
STARLINK-34911          
1 65325U 25189C   26032.96348784  .00032944  00000+0  11188-2 0  9990
2 65325  53.1588  12.9258 0001730 101.1199 258.9997 15.30219914 25633
STARLINK-34902          
1 65326U 25189D   26032.36404430  .00037659  00000+0  12758-2 0  9998
2 65326  53.1600  15.5824 0000477  69.2010 290.9042 15.30233865 25548
STARLINK-34880          
1 65327U 25189E   26032.36615649  .00035088  00000+0  11901-2 0  9998
2 65327  53.1599  15.5986 0000971  94.9067 265.2044 15.30229993 25545
