[{"OBJECT_NAME":"STARLINK-35048","OBJECT_ID":"2025-184P","EPOCH":"2026-02-01T16:35:33.085824","MEAN_MOTION":15.05652689,"ECCENTRICITY":9.729e-5,"INCLINATION":97.6038,"RA_OF_ASC_NODE":87.1682,"ARG_OF_PERICENTER":86.4436,"MEAN_ANOMALY":273.6902,"EPHEMERIS_TYPE":0,"CLASSIFICATION_TYPE":"U","NORAD_CAT_ID":65286,"ELEMENT_SET_NO":999,"REV_AT_EPOCH":2583,"BSTAR":0.00024756775,"MEAN_MOTION_DOT":3.513e-5,"MEAN_MOTION_DDOT":0},{"OBJECT_NAME":"STARLINK-35007","OBJECT_ID":"2025-184Q","EPOCH":"2026-02-01T16:59:28.258080","MEAN_MOTION":15.05654204,"ECCENTRICITY":5.361e-5,"INCLINATION":97.602,"RA_OF_ASC_NODE":87.144,"ARG_OF_PERICENTER":80.6231,"MEAN_ANOMALY":279.5056,"EPHEMERIS_TYPE":0,"CLASSIFICATION_TYPE":"U","NORAD_CAT_ID":65287,"ELEMENT_SET_NO":999,"REV_AT_EPOCH":2582,"BSTAR":0.00023938334,"MEAN_MOTION_DOT":3.395e-5,"MEAN_MOTION_DDOT":0},{"OBJECT_NAME":"STARLINK-35018","OBJECT_ID":"2025-184R","EPOCH":"2026-02-01T17:51:20.693664","MEAN_MOTION":15.05659987,"ECCENTRICITY":0.00010015,"INCLINATION":97.6047,"RA_OF_ASC_NODE":87.2528,"ARG_OF_PERICENTER":107.7923,"MEAN_ANOMALY":252.3413,"EPHEMERIS_TYPE":0,"CLASSIFICATION_TYPE":"U","NORAD_CAT_ID":65288,"ELEMENT_SET_NO":999,"REV_AT_EPOCH":2589,"BSTAR":0.00048854383,"MEAN_MOTION_DOT":6.997e-5,"MEAN_MOTION_DDOT":0},{"OBJECT_NAME":"STARLINK-34845","OBJECT_ID":"2025-184S","EPOCH":"2026-02-01T17:39:21.342816","MEAN_MOTION":15.05656597,"ECCENTRICITY":0.00011774,"INCLINATION":97.6041,"RA_OF_ASC_NODE":87.2616,"ARG_OF_PERICENTER":117.8346,"MEAN_ANOMALY":242.3,"EPHEMERIS_TYPE":0,"CLASSIFICATION_TYPE":"U","NORAD_CAT_ID":65289,"ELEMENT_SET_NO":999,"REV_AT_EPOCH":2589,"BSTAR":0.00027580272,"MEAN_MOTION_DOT":3.922e-5,"MEAN_MOTION_DDOT":0},{"OBJECT_NAME":"STARLINK-34984","OBJECT_ID":"2025-184T","EPOCH":"2026-02-01T16:23:35.547648","MEAN_MOTION":15.0564942,"ECCENTRICITY":8.653e-5,"INCLINATION":97.6047,"RA_OF_ASC_NODE":87.1797,"ARG_OF_PERICENTER":95.5375,"MEAN_ANOMALY":264.595,"EPHEMERIS_TYPE":0,"CLASSIFICATION_TYPE":"U","NORAD_CAT_ID":65290,"ELEMENT_SET_NO":999,"REV_AT_EPOCH":2588,"BSTAR":0.00010366508,"MEAN_MOTION_DOT":1.435e-5,"MEAN_MOTION_DDOT":0},{"OBJECT_NAME":"STARLINK-35002","OBJECT_ID":"2025-184U","EPOCH":"2026-02-01T17:15:25.470720","MEAN_MOTION":15.05641742,"ECCENTRICITY":5.919e-5,"INCLINATION":97.6012,"RA_OF_ASC_NODE":87.1292,"ARG_OF_PERICENTER":119.7366,"MEAN_ANOMALY":240.392,"EPHEMERIS_TYPE":0,"CLASSIFICATION_TYPE":"U","NORAD_CAT_ID":65291,"ELEMENT_SET_NO":999,"REV_AT_EPOCH":2588,"BSTAR":-4.5430003e-5,"MEAN_MOTION_DOT":-7.16e-6,"MEAN_MOTION_DDOT":0},{"OBJECT_NAME":"STARLINK-35017","OBJECT_ID":"2025-184V","EPOCH":"2026-02-01T17:31:23.236320","MEAN_MOTION":15.05653055,"ECCENTRICITY":0.00016857,"INCLINATION":97.6034,"RA_OF_ASC_NODE":87.2691,"ARG_OF_PERICENTER":90.4936,"MEAN_ANOMALY":269.6484,"EPHEMERIS_TYPE":0,"CLASSIFICATION_TYPE":"U","NORAD_CAT_ID":65292,"ELEMENT_SET_NO":999,"REV_AT_EPOCH":2584,"BSTAR":0.0002034071,"MEAN_MOTION_DOT":2.876e-5,"MEAN_MOTION_DDOT":0},{"OBJECT_NAME":"STARLINK-34951","OBJECT_ID":"2025-184W","EPOCH":"2026-02-01T16:39:32.156352","MEAN_MOTION":15.05664645,"ECCENTRICITY":4.847e-5,"INCLINATION":97.6038,"RA_OF_ASC_NODE":87.1644,"ARG_OF_PERICENTER":40.5925,"MEAN_ANOMALY":319.5338,"EPHEMERIS_TYPE":0,"CLASSIFICATION_TYPE":"U","NORAD_CAT_ID":65293,"ELEMENT_SET_NO":999,"REV_AT_EPOCH":2588,"BSTAR":0.00015516785,"MEAN_MOTION_DOT":2.18e-5,"MEAN_MOTION_DDOT":0},{"OBJECT_NAME":"STARLINK-34613","OBJECT_ID":"2025-184X","EPOCH":"2026-02-01T16:55:30.647712","MEAN_MOTION":15.05646007,"ECCENTRICITY":0.00012316,"INCLINATION":97.6025,"RA_OF_ASC_NODE":87.148,"ARG_OF_PERICENTER":86.6079,"MEAN_ANOMALY":273.5289,"EPHEMERIS_TYPE":0,"CLASSIFICATION_TYPE":"U","NORAD_CAT_ID":65294,"ELEMENT_SET_NO":999,"REV_AT_EPOCH":2588,"BSTAR":0.00039617983,"MEAN_MOTION_DOT":5.66e-5,"MEAN_MOTION_DDOT":0},{"OBJECT_NAME":"STARLINK-34834","OBJECT_ID":"2025-184Y","EPOCH":"2026-02-01T22:10:29.764704","MEAN_MOTION":15.05651731,"ECCENTRICITY":0.00015615,"INCLINATION":97.6025,"RA_OF_ASC_NODE":87.3204,"ARG_OF_PERICENTER":86.7041,"MEAN_ANOMALY":273.4365,"EPHEMERIS_TYPE":0,"CLASSIFICATION_TYPE":"U","NORAD_CAT_ID":65295,"ELEMENT_SET_NO":999,"REV_AT_EPOCH":2591,"BSTAR":0.00017346684,"MEAN_MOTION_DOT":2.443e-5,"MEAN_MOTION_DDOT":0},{"OBJECT_NAME":"STARLINK-34872","OBJECT_ID":"2025-184Z","EPOCH":"2026-02-01T17:07:28.242912","MEAN_MOTION":15.05629508,"ECCENTRICITY":0.00012094,"INCLINATION":97.6013,"RA_OF_ASC_NODE":87.1373,"ARG_OF_PERICENTER":92.3455,"MEAN_ANOMALY":267.791,"EPHEMERIS_TYPE":0,"CLASSIFICATION_TYPE":"U","NORAD_CAT_ID":65296,"ELEMENT_SET_NO":999,"REV_AT_EPOCH":2588,"BSTAR":0.00066214549,"MEAN_MOTION_DOT":9.501e-5,"MEAN_MOTION_DDOT":0},{"OBJECT_NAME":"STARLINK-34899","OBJECT_ID":"2025-189A","EPOCH":"2026-02-01T22:30:57.265920","MEAN_MOTION":15.30199048,"ECCENTRICITY":0.0001699,"INCLINATION":53.1629,"RA_OF_ASC_NODE":12.7506,"ARG_OF_PERICENTER":90.6869,"MEAN_ANOMALY":269.4326,"EPHEMERIS_TYPE":0,"CLASSIFICATION_TYPE":"U","NORAD_CAT_ID":65323,"ELEMENT_SET_NO":999,"REV_AT_EPOCH":2563,"BSTAR":0.00098815014,"MEAN_MOTION_DOT":0.00029021,"MEAN_MOTION_DDOT":0},{"OBJECT_NAME":"STARLINK-34196","OBJECT_ID":"2025-189B","EPOCH":"2026-02-01T06:30:40.086720","MEAN_MOTION":15.30195899,"ECCENTRICITY":0.00014567,"INCLINATION":53.1635,"RA_OF_ASC_NODE":15.7154,"ARG_OF_PERICENTER":71.0257,"MEAN_ANOMALY":289.0902,"EPHEMERIS_TYPE":0,"CLASSIFICATION_TYPE":"U","NORAD_CAT_ID":65324,"ELEMENT_SET_NO":999,"REV_AT_EPOCH":2548,"BSTAR":0.00077674313,"MEAN_MOTION_DOT":0.00022713,"MEAN_MOTION_DDOT":0},{"OBJECT_NAME":"STARLINK-34911","OBJECT_ID":"2025-189C","EPOCH":"2026-02-01T23:07:25.349376","MEAN_MOTION":15.30219914,"ECCENTRICITY":0.00017307,"INCLINATION":53.1588,"RA_OF_ASC_NODE":12.9258,"ARG_OF_PERICENTER":101.1199,"MEAN_ANOMALY":258.9997,"EPHEMERIS_TYPE":0,"CLASSIFICATION_TYPE":"U","NORAD_CAT_ID":65325,"ELEMENT_SET_NO":999,"REV_AT_EPOCH":2563,"BSTAR":0.0011187857,"MEAN_MOTION_DOT":0.00032944,"MEAN_MOTION_DDOT":0},{"OBJECT_NAME":"STARLINK-34902","OBJECT_ID":"2025-189D","EPOCH":"2026-02-01T08:44:13.427520","MEAN_MOTION":15.30233865,"ECCENTRICITY":4.775e-5,"INCLINATION":53.16,"RA_OF_ASC_NODE":15.5824,"ARG_OF_PERICENTER":69.201,"MEAN_ANOMALY":290.9042,"EPHEMERIS_TYPE":0,"CLASSIFICATION_TYPE":"U","NORAD_CAT_ID":65326,"ELEMENT_SET_NO":999,"REV_AT_EPOCH":2554,"BSTAR":0.0012758283,"MEAN_MOTION_DOT":0.00037659,"MEAN_MOTION_DDOT":0},{"OBJECT_NAME":"STARLINK-34880","OBJECT_ID":"2025-189E","EPOCH":"2026-02-01T08:47:15.920736","MEAN_MOTION":15.30229993,"ECCENTRICITY":9.712e-5,"INCLINATION":53.1599,"RA_OF_ASC_NODE":15.5986,"ARG_OF_PERICENTER":94.9067,"MEAN_ANOMALY":265.2044,"EPHEMERIS_TYPE":0,"CLASSIFICATION_TYPE":"U","NORAD_CAT_ID":65327,"ELEMENT_SET_NO":999,"REV_AT_EPOCH":2554,"BSTAR":0.0011901136,"MEAN_MOTION_DOT":0.00035088,"MEAN_MOTION_DDOT":0}]
